{"fetched_at":"2026-03-29T16:36:15Z","count":15609,"tles":[{"name":"STARLINK-34466","line1":"1 66226U 25244W   26087.85051188  .00016412  00000+0  56496-3 0  9994","line2":"2 66226  53.1597 140.8699 0001436  80.5838 279.5325 15.30203668 24594","category":"Starlink"}]}